start=new Date('2022-06-30T00:00:00.000Z').valueOf();
sats=[{"REF_FRAME":"TEME","CLASSIFICATION_TYPE":"U","BSTAR":"0.00011193000000","MEAN_MOTION_DOT":"0.00001243","OBJECT_NAME":"STARLINK-3054","FILE":"3505610","NORAD_CAT_ID":"49167","CENTER_NAME":"EARTH","ECCENTRICITY":"0.00030830","MEAN_MOTION_DDOT":"0.0000000000000","PERIOD":"96.107","SITE":"AFWTR","MEAN_MOTION":"14.98325632","OBJECT_ID":"2021-082AP","MEAN_ANOMALY":"97.7399","DECAY_DATE":null,"PERIAPSIS":"569.929","TLE_LINE2":"2 49167  69.9999  95.1957 0003083 262.3410  97.7399 14.98325632 45149","TLE_LINE1":"1 49167U 21082AP  22180.91279664  .00001243  00000-0  11193-3 0  9995","TIME_SYSTEM":"UTC","RA_OF_ASC_NODE":"95.1957","OBJECT_TYPE":"PAYLOAD","LAUNCH_DATE":"2021-09-14","COUNTRY_CODE":"US","EPHEMERIS_TYPE":"0","ELEMENT_SET_NO":"999","EPOCH":"2022-06-29T21:54:25.629696","APOAPSIS":"574.214","INCLINATION":"69.9999","RCS_SIZE":"LARGE","MEAN_ELEMENT_THEORY":"SGP4","ARG_OF_PERICENTER":"262.3410","GP_ID":"207121721","SEMIMAJOR_AXIS":"6950.206","REV_AT_EPOCH":"4514"},{"FILE":"3505610","CENTER_NAME":"EARTH","NORAD_CAT_ID":"49168","MEAN_MOTION_DDOT":"0.0000000000000","PERIOD":"96.211","ECCENTRICITY":"0.00030550","REF_FRAME":"TEME","BSTAR":"0.00012676000000","CLASSIFICATION_TYPE":"U","OBJECT_NAME":"STARLINK-3101","MEAN_MOTION_DOT":"0.00001360","DECAY_DATE":null,"PERIAPSIS":"574.932","MEAN_ANOMALY":"100.7258","OBJECT_ID":"2021-082AQ","TLE_LINE1":"1 49168U 21082AQ  22180.87936763  .00001360  00000-0  12676-3 0  9998","TLE_LINE2":"2 49168  69.9996  74.9065 0003055 259.3557 100.7258 14.96714794 45642","MEAN_MOTION":"14.96714794","SITE":"AFWTR","INCLINATION":"69.9996","RCS_SIZE":"LARGE","APOAPSIS":"579.182","MEAN_ELEMENT_THEORY":"SGP4","COUNTRY_CODE":"US","TIME_SYSTEM":"UTC","RA_OF_ASC_NODE":"74.9065","OBJECT_TYPE":"PAYLOAD","LAUNCH_DATE":"2021-09-14","EPOCH":"2022-06-29T21:06:17.363232","EPHEMERIS_TYPE":"0","ELEMENT_SET_NO":"999","REV_AT_EPOCH":"4564","ARG_OF_PERICENTER":"259.3557","GP_ID":"207119970","SEMIMAJOR_AXIS":"6955.192"},{"DECAY_DATE":null,"PERIAPSIS":"575.097","MEAN_ANOMALY":"100.9203","OBJECT_ID":"2021-082AR","TLE_LINE1":"1 49169U 21082AR  22180.88424224  .00001130  00000-0  10674-3 0  9995","TLE_LINE2":"2 49169  70.0001  74.8946 0002850 259.1635 100.9203 14.96707855 44446","SITE":"AFWTR","MEAN_MOTION":"14.96707855","FILE":"3505610","CENTER_NAME":"EARTH","NORAD_CAT_ID":"49169","MEAN_MOTION_DDOT":"0.0000000000000","PERIOD":"96.211","ECCENTRICITY":"0.00028500","REF_FRAME":"TEME","CLASSIFICATION_TYPE":"U","BSTAR":"0.00010674000000","MEAN_MOTION_DOT":"0.00001130","OBJECT_NAME":"STARLINK-3046","REV_AT_EPOCH":"4444","ARG_OF_PERICENTER":"259.1635","SEMIMAJOR_AXIS":"6955.214","GP_ID":"207120220","INCLINATION":"70.0001","RCS_SIZE":"LARGE","APOAPSIS":"579.061","MEAN_ELEMENT_THEORY":"SGP4","COUNTRY_CODE":"US","TIME_SYSTEM":"UTC","RA_OF_ASC_NODE":"74.8946","LAUNCH_DATE":"2021-09-14","OBJECT_TYPE":"PAYLOAD","EPOCH":"2022-06-29T21:13:18.529536","EPHEMERIS_TYPE":"0","ELEMENT_SET_NO":"999"},{"OBJECT_ID":"2021-082AS","MEAN_ANOMALY":"97.5619","DECAY_DATE":null,"PERIAPSIS":"570.201","TLE_LINE2":"2 49170  69.9992  95.2546 0002685 262.5235  97.5619 14.98326955 43943","TLE_LINE1":"1 49170U 21082AS  22180.88691038 -.00000383  00000-0 -24321-4 0  9992","MEAN_MOTION":"14.98326955","SITE":"AFWTR","NORAD_CAT_ID":"49170","FILE":"3505610","CENTER_NAME":"EARTH","ECCENTRICITY":"0.00026850","MEAN_MOTION_DDOT":"0.0000000000000","PERIOD":"96.107","REF_FRAME":"TEME","BSTAR":"-0.00002432100000","CLASSIFICATION_TYPE":"U","OBJECT_NAME":"STARLINK-3074","MEAN_MOTION_DOT":"-0.00000383","REV_AT_EPOCH":"4394","ARG_OF_PERICENTER":"262.5235","SEMIMAJOR_AXIS":"6950.202","GP_ID":"207120970","APOAPSIS":"573.933","RCS_SIZE":"LARGE","INCLINATION":"69.9992","MEAN_ELEMENT_THEORY":"SGP4","TIME_SYSTEM":"UTC","RA_OF_ASC_NODE":"95.2546","LAUNCH_DATE":"2021-09-14","OBJECT_TYPE":"PAYLOAD","COUNTRY_CODE":"US","EPHEMERIS_TYPE":"0","ELEMENT_SET_NO":"999","EPOCH":"2022-06-29T21:17:09.056832"},{"MEAN_MOTION_DDOT":"0.0000000000000","PERIOD":"96.108","ECCENTRICITY":"0.00029520","FILE":"3505610","NORAD_CAT_ID":"49171","CENTER_NAME":"EARTH","MEAN_MOTION_DOT":"-0.00000062","OBJECT_NAME":"STARLINK-3107","REF_FRAME":"TEME","BSTAR":"0.00000258540000","CLASSIFICATION_TYPE":"U","TLE_LINE1":"1 49171U 21082AT  22180.90599549 -.00000062  00000-0  25854-5 0  9996","TLE_LINE2":"2 49171  69.9992  95.2130 0002952 269.8878  90.1943 14.98314460 45100","DECAY_DATE":null,"PERIAPSIS":"570.054","OBJECT_ID":"2021-082AT","MEAN_ANOMALY":"90.1943","SITE":"AFWTR","MEAN_MOTION":"14.98314460","MEAN_ELEMENT_THEORY":"SGP4","RCS_SIZE":"LARGE","INCLINATION":"69.9992","APOAPSIS":"574.158","EPOCH":"2022-06-29T21:44:38.010336","EPHEMERIS_TYPE":"0","ELEMENT_SET_NO":"999","COUNTRY_CODE":"US","TIME_SYSTEM":"UTC","RA_OF_ASC_NODE":"95.2130","LAUNCH_DATE":"2021-09-14","OBJECT_TYPE":"PAYLOAD","REV_AT_EPOCH":"4510","GP_ID":"207121221","SEMIMAJOR_AXIS":"6950.241","ARG_OF_PERICENTER":"269.8878"},{"TLE_LINE2":"2 49172  69.9997  74.9760 0002818 264.5651  95.5186 14.96718694 44439","TLE_LINE1":"1 49172U 21082AU  22180.85440330  .00000892  00000-0  85912-4 0  9994","OBJECT_ID":"2021-082AU","MEAN_ANOMALY":"95.5186","PERIAPSIS":"575.085","DECAY_DATE":null,"MEAN_MOTION":"14.96718694","SITE":"AFWTR","ECCENTRICITY":"0.00028180","PERIOD":"96.210","MEAN_MOTION_DDOT":"0.0000000000000","NORAD_CAT_ID":"49172","FILE":"3505610","CENTER_NAME":"EARTH","OBJECT_NAME":"STARLINK-3091","MEAN_MOTION_DOT":"0.00000892","BSTAR":"0.00008591200000","CLASSIFICATION_TYPE":"U","REF_FRAME":"TEME","REV_AT_EPOCH":"4443","SEMIMAJOR_AXIS":"6955.180","GP_ID":"207120471","ARG_OF_PERICENTER":"264.5651","MEAN_ELEMENT_THEORY":"SGP4","APOAPSIS":"579.005","RCS_SIZE":"LARGE","INCLINATION":"69.9997","ELEMENT_SET_NO":"999","EPHEMERIS_TYPE":"0","EPOCH":"2022-06-29T20:30:20.445120","LAUNCH_DATE":"2021-09-14","OBJECT_TYPE":"PAYLOAD","TIME_SYSTEM":"UTC","RA_OF_ASC_NODE":"74.9760","COUNTRY_CODE":"US"},{"LAUNCH_DATE":"2021-09-14","OBJECT_TYPE":"PAYLOAD","TIME_SYSTEM":"UTC","RA_OF_ASC_NODE":"74.9173","COUNTRY_CODE":"US","ELEMENT_SET_NO":"999","EPHEMERIS_TYPE":"0","EPOCH":"2022-06-29T21:00:54.904608","APOAPSIS":"579.019","RCS_SIZE":"LARGE","INCLINATION":"69.9993","MEAN_ELEMENT_THEORY":"SGP4","ARG_OF_PERICENTER":"267.7348","GP_ID":"207120721","SEMIMAJOR_AXIS":"6955.185","REV_AT_EPOCH":"4444","CLASSIFICATION_TYPE":"U","BSTAR":"0.00010560000000","REF_FRAME":"TEME","OBJECT_NAME":"STARLINK-3045","MEAN_MOTION_DOT":"0.00001117","CENTER_NAME":"EARTH","FILE":"3505610","NORAD_CAT_ID":"49173","ECCENTRICITY":"0.00028320","PERIOD":"96.211","MEAN_MOTION_DDOT":"0.0000000000000","MEAN_MOTION":"14.96717300","SITE":"AFWTR","OBJECT_ID":"2021-082AV","MEAN_ANOMALY":"92.3486","PERIAPSIS":"575.080","DECAY_DATE":null,"TLE_LINE2":"2 49173  69.9993  74.9173 0002832 267.7348  92.3486 14.96717300 44440","TLE_LINE1":"1 49173U 21082AV  22180.87563547  .00001117  00000-0  10560-3 0  9990"},{"CENTER_NAME":"EARTH","FILE":"3505610","NORAD_CAT_ID":"49174","MEAN_MOTION_DDOT":"0.0000000000000","PERIOD":"96.208","ECCENTRICITY":"0.00029110","REF_FRAME":"TEME","BSTAR":"0.00006899700000","CLASSIFICATION_TYPE":"U","OBJECT_NAME":"STARLINK-3047","MEAN_MOTION_DOT":"0.00000699","DECAY_DATE":null,"PERIAPSIS":"574.918","OBJECT_ID":"2021-082AW","MEAN_ANOMALY":"103.5842","TLE_LINE1":"1 49174U 21082AW  22180.87233358  .00000699  00000-0  68997-4 0  9997","TLE_LINE2":"2 49174  69.9993  74.9186 0002911 256.4992 103.5842 14.96751697 45611","SITE":"AFWTR","MEAN_MOTION":"14.96751697","INCLINATION":"69.9993","RCS_SIZE":"LARGE","APOAPSIS":"578.968","MEAN_ELEMENT_THEORY":"SGP4","COUNTRY_CODE":"US","TIME_SYSTEM":"UTC","RA_OF_ASC_NODE":"74.9186","OBJECT_TYPE":"PAYLOAD","LAUNCH_DATE":"2021-09-14","EPOCH":"2022-06-29T20:56:09.621312","EPHEMERIS_TYPE":"0","ELEMENT_SET_NO":"999","REV_AT_EPOCH":"4561","ARG_OF_PERICENTER":"256.4992","GP_ID":"207121471","SEMIMAJOR_AXIS":"6955.078"},{"TLE_LINE1":"1 49175U 21082AX  22180.90171750  .00001167  00000-0  10993-3 0  9992","TLE_LINE2":"2 49175  70.0002  74.8557 0002945 264.4961  95.5861 14.96717861 44445","PERIAPSIS":"574.999","DECAY_DATE":null,"MEAN_ANOMALY":"95.5861","OBJECT_ID":"2021-082AX","SITE":"AFWTR","MEAN_MOTION":"14.96717861","PERIOD":"96.211","MEAN_MOTION_DDOT":"0.0000000000000","ECCENTRICITY":"0.00029450","FILE":"3505610","NORAD_CAT_ID":"49175","CENTER_NAME":"EARTH","MEAN_MOTION_DOT":"0.00001167","OBJECT_NAME":"STARLINK-3087","BSTAR":"0.00010993000000","CLASSIFICATION_TYPE":"U","REF_FRAME":"TEME","REV_AT_EPOCH":"4444","SEMIMAJOR_AXIS":"6955.183","GP_ID":"207121722","ARG_OF_PERICENTER":"264.4961","MEAN_ELEMENT_THEORY":"SGP4","RCS_SIZE":"LARGE","INCLINATION":"70.0002","APOAPSIS":"579.096","EPOCH":"2022-06-29T21:38:28.392000","ELEMENT_SET_NO":"999","EPHEMERIS_TYPE":"0","COUNTRY_CODE":"US","LAUNCH_DATE":"2021-09-14","OBJECT_TYPE":"PAYLOAD","TIME_SYSTEM":"UTC","RA_OF_ASC_NODE":"74.8557"},{"CENTER_NAME":"EARTH","FILE":"3505610","NORAD_CAT_ID":"49176","ECCENTRICITY":"0.00027360","MEAN_MOTION_DDOT":"0.0000000000000","PERIOD":"96.211","REF_FRAME":"TEME","BSTAR":"0.00009765800000","CLASSIFICATION_TYPE":"U","MEAN_MOTION_DOT":"0.00001026","OBJECT_NAME":"STARLINK-3069","OBJECT_ID":"2021-082AY","MEAN_ANOMALY":"88.9738","DECAY_DATE":null,"PERIAPSIS":"575.152","TLE_LINE2":"2 49176  69.9972  54.7431 0002736 271.1106  88.9738 14.96715474 44932","TLE_LINE1":"1 49176U 21082AY  22180.84769916  .00001026  00000-0  97658-4 0  9991","MEAN_MOTION":"14.96715474","SITE":"AFWTR","APOAPSIS":"578.958","RCS_SIZE":"LARGE","INCLINATION":"69.9972","MEAN_ELEMENT_THEORY":"SGP4","TIME_SYSTEM":"UTC","RA_OF_ASC_NODE":"54.7431","LAUNCH_DATE":"2021-09-14","OBJECT_TYPE":"PAYLOAD","COUNTRY_CODE":"US","EPHEMERIS_TYPE":"0","ELEMENT_SET_NO":"999","EPOCH":"2022-06-29T20:20:41.207424","REV_AT_EPOCH":"4493","ARG_OF_PERICENTER":"271.1106","GP_ID":"207119971","SEMIMAJOR_AXIS":"6955.190"}];
